{"type": "FeatureCollection", "features": [ {"type": "Feature", "properties": {"norad_id": 61182, "name": "GSAT0232 (GALILEO 32)", "group": "gnss", "lat": -13.851607481534817, "lon": -143.7661913604244, "alt_km": 23228.59052724874, "timestamp": "2025-12-25T14:48:25.024058+00:00", "meta": {"OBJECT_NAME": "GSAT0232 (GALILEO 32)", "OBJECT_ID": "2024-167A", "EPOCH": "2025-12-24T18:25:47.943264", "MEAN_MOTION": 1.70473505, "ECCENTRICITY": 0.0001887, "INCLINATION": 55.2374, "RA_OF_ASC_NODE": 226.1008, "ARG_OF_PERICENTER": 202.1814, "MEAN_ANOMALY": 339.8736, "EPHEMERIS_TYPE": 0, "CLASSIFICATION_TYPE": "U", "NORAD_CAT_ID": 61182, "ELEMENT_SET_NO": 999, "REV_AT_EPOCH": 790, "BSTAR": 0, "MEAN_MOTION_DOT": 7.1e-07, "MEAN_MOTION_DDOT": 0}, "tle": {"line1": "1 61182U 24167A   25358.76791601  .00000071  00000+0  00000+0 0  9994", "line2": "2 61182  55.2374 226.1008 0001887 202.1814 339.8736  1.70473505  7904"}}, "geometry": {"type": "Point", "coordinates": [-143.7661913604244, -13.851607481534817]}}, {"type": "Feature", "properties": {"norad_id": 61183, "name": "GSAT0226 (GALILEO 31)", "group": "gnss", "lat": 54.81592497019798, "lon": -33.93287599275473, "alt_km": 23212.292100829127, "timestamp": "2025-12-25T14:48:25.024069+00:00", "meta": {"OBJECT_NAME": "GSAT0226 (GALILEO 31)", "OBJECT_ID": "2024-167B", "EPOCH": "2025-12-25T01:44:41.758656", "MEAN_MOTION": 1.70473602, "ECCENTRICITY": 0.00012523, "INCLINATION": 55.236, "RA_OF_ASC_NODE": 226.0978, "ARG_OF_PERICENTER": 109.4084, "MEAN_ANOMALY": 12.3648, "EPHEMERIS_TYPE": 0, "CLASSIFICATION_TYPE": "U", "NORAD_CAT_ID": 61183, "ELEMENT_SET_NO": 999, "REV_AT_EPOCH": 788, "BSTAR": 0, "MEAN_MOTION_DOT": 7.1e-07, "MEAN_MOTION_DDOT": 0}, "tle": {"line1": "1 61183U 24167B   25359.07270554  .00000071  00000+0  00000+0 0  9999", "line2": "2 61183  55.2360 226.0978 0001252 109.4084  12.3648  1.70473602  7889"}}, "geometry": {"type": "Point", "coordinates": [-33.93287599275473, 54.81592497019798]}}, {"type": "Feature", "properties": {"norad_id": 61186, "name": "BEIDOU-3 M25 (C47)", "group": "gnss", "lat": 54.60841343306987, "lon": 35.435064260059484, "alt_km": 21534.645986109954, "timestamp": "2025-12-25T14:48:25.024079+00:00", "meta": {"OBJECT_NAME": "BEIDOU-3 M25 (C47)", "OBJECT_ID": "2024-168B", "EPOCH": "2025-12-25T00:55:03.681120", "MEAN_MOTION": 1.86230021, "ECCENTRICITY": 0.00054132, "INCLINATION": 54.6311, "RA_OF_ASC_NODE": 308.2949, "ARG_OF_PERICENTER": 300.1318, "MEAN_ANOMALY": 120.184, "EPHEMERIS_TYPE": 0, "CLASSIFICATION_TYPE": "U", "NORAD_CAT_ID": 61186, "ELEMENT_SET_NO": 999, "REV_AT_EPOCH": 854, "BSTAR": 0, "MEAN_MOTION_DOT": -5.4e-07, "MEAN_MOTION_DDOT": 0}, "tle": {"line1": "1 61186U 24168B   25359.03823705 -.00000054  00000+0  00000+0 0  9993", "line2": "2 61186  54.6311 308.2949 0005413 300.1318 120.1840  1.86230021  8544"}}, "geometry": {"type": "Point", "coordinates": [35.435064260059484, 54.60841343306987]}}, {"type": "Feature", "properties": {"norad_id": 61187, "name": "BEIDOU-3 M27 (C49)", "group": "gnss", "lat": -33.98918346729437, "lon": 156.82923919713167, "alt_km": 21535.675312628155, "timestamp": "2025-12-25T14:48:25.024090+00:00", "meta": {"OBJECT_NAME": "BEIDOU-3 M27 (C49)", "OBJECT_ID": "2024-168C", "EPOCH": "2025-12-25T00:22:38.802432", "MEAN_MOTION": 1.86230181, "ECCENTRICITY": 0.00025443, "INCLINATION": 54.6266, "RA_OF_ASC_NODE": 308.2793, "ARG_OF_PERICENTER": 341.3451, "MEAN_ANOMALY": 198.8284, "EPHEMERIS_TYPE": 0, "CLASSIFICATION_TYPE": "U", "NORAD_CAT_ID": 61187, "ELEMENT_SET_NO": 999, "REV_AT_EPOCH": 601, "BSTAR": 0, "MEAN_MOTION_DOT": -5.4e-07, "MEAN_MOTION_DDOT": 0}, "tle": {"line1": "1 61187U 24168C   25359.01572688 -.00000054  00000+0  00000+0 0  9993", "line2": "2 61187  54.6266 308.2793 0002544 341.3451 198.8284  1.86230181  6019"}}, "geometry": {"type": "Point", "coordinates": [156.82923919713167, -33.98918346729437]}}, {"type": "Feature", "properties": {"norad_id": 62339, "name": "GPS BIII-7  (PRN 01)", "group": "gnss", "lat": -15.256580498720554, "lon": 172.2550950927304, "alt_km": 20212.71150025928, "timestamp": "2025-12-25T14:48:25.024100+00:00", "meta": {"OBJECT_NAME": "GPS BIII-7  (PRN 01)", "OBJECT_ID": "2024-242A", "EPOCH": "2025-12-24T14:08:35.073312", "MEAN_MOTION": 2.00568073, "ECCENTRICITY": 0.00128162, "INCLINATION": 54.9201, "RA_OF_ASC_NODE": 341.2611, "ARG_OF_PERICENTER": 346.3759, "MEAN_ANOMALY": 190.3817, "EPHEMERIS_TYPE": 0, "CLASSIFICATION_TYPE": "U", "NORAD_CAT_ID": 62339, "ELEMENT_SET_NO": 999, "REV_AT_EPOCH": 775, "BSTAR": 0, "MEAN_MOTION_DOT": -6.2e-07, "MEAN_MOTION_DDOT": 0}, "tle": {"line1": "1 62339U 24242A   25358.58929483 -.00000062  00000+0  00000+0 0  9995", "line2": "2 62339  54.9201 341.2611 0012816 346.3759 190.3817  2.00568073  7758"}}, "geometry": {"type": "Point", "coordinates": [172.2550950927304, -15.256580498720554]}}, {"type": "Feature", "properties": {"norad_id": 62850, "name": "NVS-02 (IRNSS-1K)", "group": "gnss", "lat": -9.934727381584512, "lon": 170.21240849936282, "alt_km": 36635.811527019534, "timestamp": "2025-12-25T14:48:25.024112+00:00", "meta": {"OBJECT_NAME": "NVS-02 (IRNSS-1K)", "OBJECT_ID": "2025-020A", "EPOCH": "2025-12-23T02:48:28.612512", "MEAN_MOTION": 2.17602057, "ECCENTRICITY": 0.73473509, "INCLINATION": 20.9588, "RA_OF_ASC_NODE": 323.9017, "ARG_OF_PERICENTER": 32.9618, "MEAN_ANOMALY": 356.3768, "EPHEMERIS_TYPE": 0, "CLASSIFICATION_TYPE": "U", "NORAD_CAT_ID": 62850, "ELEMENT_SET_NO": 999, "REV_AT_EPOCH": 714, "BSTAR": 0.00026724694, "MEAN_MOTION_DOT": 1.47e-06, "MEAN_MOTION_DDOT": 0}, "tle": {"line1": "1 62850U 25020A   25357.11699783  .00000147  00000+0  26725-3 0  9992", "line2": "2 62850  20.9588 323.9017 7347350  32.9618 356.3768  2.17602057  7148"}}, "geometry": {"type": "Point", "coordinates": [170.21240849936282, -9.934727381584512]}}, {"type": "Feature", "properties": {"norad_id": 62876, "name": "QZS-6 (QZSS/PRN 200)", "group": "gnss", "lat": -0.01708882216981652, "lon": 47.02674835665146, "alt_km": 35790.56068252732, "timestamp": "2025-12-25T14:48:25.024123+00:00", "meta": {"OBJECT_NAME": "QZS-6 (QZSS/PRN 200)", "OBJECT_ID": "2025-023A", "EPOCH": "2025-12-24T23:48:09.569952", "MEAN_MOTION": 1.0027057, "ECCENTRICITY": 0.00016615, "INCLINATION": 0.0586, "RA_OF_ASC_NODE": 74.0918, "ARG_OF_PERICENTER": 207.4813, "MEAN_ANOMALY": 259.767, "EPHEMERIS_TYPE": 0, "CLASSIFICATION_TYPE": "U", "NORAD_CAT_ID": 62876, "ELEMENT_SET_NO": 999, "REV_AT_EPOCH": 321, "BSTAR": 0, "MEAN_MOTION_DOT": -2.12e-06, "MEAN_MOTION_DDOT": 0}, "tle": {"line1": "1 62876U 25023A   25358.99177743 -.00000212  00000+0  00000+0 0  9995", "line2": "2 62876   0.0586  74.0918 0001661 207.4813 259.7670  1.00270570  3212"}}, "geometry": {"type": "Point", "coordinates": [47.02674835665146, -0.01708882216981652]}}, {"type": "Feature", "properties": {"norad_id": 63130, "name": "COSMOS 2584 (704K)", "group": "gnss", "lat": 62.485317189801776, "lon": 142.25197762263892, "alt_km": 19138.796470234778, "timestamp": "2025-12-25T14:48:25.024133+00:00", "meta": {"OBJECT_NAME": "COSMOS 2584 (704K)", "OBJECT_ID": "2025-042A", "EPOCH": "2025-12-24T02:34:25.549824", "MEAN_MOTION": 2.13102981, "ECCENTRICITY": 0.00077651, "INCLINATION": 64.9819, "RA_OF_ASC_NODE": 78.7588, "ARG_OF_PERICENTER": 220.6893, "MEAN_ANOMALY": 139.3012, "EPHEMERIS_TYPE": 0, "CLASSIFICATION_TYPE": "U", "NORAD_CAT_ID": 63130, "ELEMENT_SET_NO": 999, "REV_AT_EPOCH": 631, "BSTAR": 0, "MEAN_MOTION_DOT": 1e-08, "MEAN_MOTION_DDOT": 0}, "tle": {"line1": "1 63130U 25042A   25358.10724016  .00000001  00000+0  00000+0 0  9999", "line2": "2 63130  64.9819  78.7588 0007765 220.6893 139.3012  2.13102981  6316"}}, "geometry": {"type": "Point", "coordinates": [142.25197762263892, 62.485317189801776]}}, {"type": "Feature", "properties": {"norad_id": 64202, "name": "GPS BIII-8  (PRN 21)", "group": "gnss", "lat": 22.512493532701637, "lon": 54.936787423492916, "alt_km": 20176.499794702715, "timestamp": "2025-12-25T14:48:25.024144+00:00", "meta": {"OBJECT_NAME": "GPS BIII-8  (PRN 21)", "OBJECT_ID": "2025-116A", "EPOCH": "2025-12-24T05:06:23.734944", "MEAN_MOTION": 2.0055752, "ECCENTRICITY": 0.00059658, "INCLINATION": 55.1137, "RA_OF_ASC_NODE": 38.1782, "ARG_OF_PERICENTER": 310.8419, "MEAN_ANOMALY": 143.1183, "EPHEMERIS_TYPE": 0, "CLASSIFICATION_TYPE": "U", "NORAD_CAT_ID": 64202, "ELEMENT_SET_NO": 999, "REV_AT_EPOCH": 436, "BSTAR": 0, "MEAN_MOTION_DOT": -5e-07, "MEAN_MOTION_DDOT": 0}, "tle": {"line1": "1 64202U 25116A   25358.21277471 -.00000050  00000+0  00000+0 0  9997", "line2": "2 64202  55.1137  38.1782 0005965 310.8419 143.1183  2.00557520  4368"}}, "geometry": {"type": "Point", "coordinates": [54.936787423492916, 22.512493532701637]}}, {"type": "Feature", "properties": {"norad_id": 65590, "name": "COSMOS 2596 (708K)", "group": "gnss", "lat": -14.842593366360802, "lon": 148.19713036617688, "alt_km": 19145.376580277683, "timestamp": "2025-12-25T14:48:25.024154+00:00", "meta": {"OBJECT_NAME": "COSMOS 2596 (708K)", "OBJECT_ID": "2025-206B", "EPOCH": "2025-12-24T10:04:00.075648", "MEAN_MOTION": 2.13100293, "ECCENTRICITY": 0.00140917, "INCLINATION": 64.738, "RA_OF_ASC_NODE": 321.0695, "ARG_OF_PERICENTER": 307.5813, "MEAN_ANOMALY": 50.2886, "EPHEMERIS_TYPE": 0, "CLASSIFICATION_TYPE": "U", "NORAD_CAT_ID": 65590, "ELEMENT_SET_NO": 999, "REV_AT_EPOCH": 218, "BSTAR": 0, "MEAN_MOTION_DOT": -3.5e-07, "MEAN_MOTION_DDOT": 0}, "tle": {"line1": "1 65590U 25206B   25358.41944532 -.00000035  00000+0  00000+0 0  9992", "line2": "2 65590  64.7380 321.0695 0014091 307.5813  50.2886  2.13100293  2184"}}, "geometry": {"type": "Point", "coordinates": [148.19713036617688, -14.842593366360802]}}]}